GPS BIIA-23 (PRN 18)    
1 22877U 93068A   18236.21567007 -.00000018  00000-0  00000+0 0  9999
2 22877  54.4725  80.7115 0146957  76.4991 123.5928  2.00568338181910
GPS BIIR-2  (PRN 13)    
1 24876U 97035A   18236.33178203  .00000016  00000-0  00000+0 0  9994
2 24876  55.4842 210.0941 0030987  84.9707 275.3589  2.00564478154517
GPS BIIR-3  (PRN 11)    
1 25933U 99055A   18236.44841000 -.00000043  00000-0  00000+0 0  9998
2 25933  51.9358  58.7166 0168037 103.4992 267.4022  2.00565788138333
GPS BIIR-4  (PRN 20)    
1 26360U 00025A   18236.51836689 -.00000032  00000-0  00000+0 0  9995
2 26360  53.2199 136.8169 0039736 120.8772 347.2473  2.00563243134022
GPS BIIR-5  (PRN 28)    
1 26407U 00040A   18236.46438021 -.00000068  00000-0  00000+0 0  9995
2 26407  56.4420 328.2267 0197660 273.0725 133.9535  2.00562757132703
GPS BIIR-6  (PRN 14)    
1 26605U 00071A   18236.37197994  .00000012  00000-0  00000+0 0  9998
2 26605  55.0575 207.6572 0102897 249.1097 357.9677  2.00569863130306
GPS BIIR-8  (PRN 16)    
1 27663U 03005A   18236.15239990 -.00000070  00000-0  00000+0 0  9997
2 27663  56.5057 327.9995 0098577  28.8432 273.0975  2.00562973114060
GPS BIIR-9  (PRN 21)    
1 27704U 03010A   18236.08563917 -.00000020  00000-0  00000+0 0  9995
2 27704  54.1438  80.2813 0245359 272.1020 301.3650  2.00567056112857
GPS BIIR-10 (PRN 22)    
1 28129U 03058A   18236.02851845 -.00000039  00000-0  00000+0 0  9993
2 28129  53.0328 139.6792 0073817 274.3839  84.8084  2.00556099107550
GPS BIIR-11 (PRN 19)    
1 28190U 04009A   18236.35697500 -.00000071  00000-0  00000+0 0  9996
2 28190  56.1978  28.8184 0095415  72.0022 163.7385  2.00558449105732
GPS BIIR-12 (PRN 23)    
1 28361U 04023A   18236.39345392  .00000003  00000-0  00000+0 0  9999
2 28361  54.0602 202.3280 0128303 227.0751 311.4103  2.00554939103821
GPS BIIR-13 (PRN 02)    
1 28474U 04045A   18236.39979830 -.00000018  00000-0  00000+0 0  9995
2 28474  54.5107  79.9084 0181977 254.9094 287.0080  2.00549081101187
GPS BIIRM-1 (PRN 17)    
1 28874U 05038A   18236.05011921 -.00000074  00000-0  00000+0 0  9995
2 28874  56.3357  26.1489 0127165 258.3323 141.3448  2.00572465 94580
GPS BIIRM-2 (PRN 31)    
1 29486U 06042A   18236.08312594  .00000041  00000-0  00000+0 0  9997
2 29486  55.1442 264.9470 0088661 351.6706 354.2411  2.00557783 87294
GPS BIIRM-3 (PRN 12)    
1 29601U 06052A   18236.04234792 -.00000069  00000-0  00000+0 0  9997
2 29601  56.4822 326.9204 0068480  57.7540 302.9495  2.00551332 86217
GPS BIIRM-4 (PRN 15)    
1 32260U 07047A   18235.87048493 -.00000004  00000-0  00000+0 0  9997
2 32260  53.1843 198.3106 0104049  39.1228 321.5900  2.00548250 79596
GPS BIIRM-5 (PRN 29)    
1 32384U 07062A   18235.71845146 -.00000074  00000-0  00000-0 0  9992
2 32384  56.4113  26.7763 0005950  87.0541 300.8459  2.00567694 78303
GPS BIIRM-6 (PRN 07)    
1 32711U 08012A   18236.27513010  .00000040  00000-0  00000+0 0  9997
2 32711  54.8791 264.2013 0121754 217.6733 141.5337  2.00566872 76516
GPS BIIRM-8 (PRN 05)    
1 35752U 09043A   18236.10093427 -.00000037  00000-0  00000+0 0  9994
2 35752  54.3344 141.9570 0054435  36.0798 225.4741  2.00552263 66099
GPS BIIF-1  (PRN 25)    
1 36585U 10022A   18236.18783947 -.00000063  00000-0  00000+0 0  9998
2 36585  55.7704 323.4279 0072704  48.6143  21.8500  2.00572246 60340
GPS BIIF-2  (PRN 01)    
1 37753U 11036A   18236.44823845 -.00000012  00000-0  00000+0 0  9997
2 37753  55.7091  83.5149 0079379  37.8341 305.9738  2.00564812 52038
GPS BIIF-3  (PRN 24)    
1 38833U 12053A   18235.45810456  .00000042  00000-0  00000-0 0  9994
2 38833  53.9106 260.7254 0070183  28.9176 331.5331  2.00568102 42299
GPS BIIF-4  (PRN 27)    
1 39166U 13023A   18236.31543850 -.00000078  00000-0  00000+0 0  9998
2 39166  56.0303  23.0126 0059245  24.2084 336.0747  2.00562072 38637
GPS BIIF-5  (PRN 30)    
1 39533U 14008A   18235.31833848  .00000037  00000-0  00000-0 0  9993
2 39533  54.0525 266.0905 0036638 192.2630 167.7162  2.00560467 32446
GPS BIIF-6  (PRN 06)    
1 39741U 14026A   18236.09422870 -.00000014  00000-0  00000+0 0  9994
2 39741  55.6916  83.0523 0011892 292.8093  67.1506  2.00562400 31270
GPS BIIF-7  (PRN 09)    
1 40105U 14045A   18236.18252908  .00000004  00000-0  00000+0 0  9992
2 40105  54.5864 202.4778 0007299 105.6104 254.4391  2.00576674 29723
GPS BIIF-8  (PRN 03)    
1 40294U 14068A   18236.05993819 -.00000037  00000-0  00000+0 0  9992
2 40294  55.0858 143.2786 0015510  25.9760 334.1307  2.00561183 27943
GPS BIIF-9  (PRN 26)    
1 40534U 15013A   18236.19420037 -.00000063  00000-0  00000+0 0  9991
2 40534  54.7090 322.0784 0028350 359.9085   0.1417  2.00559766 25017
GPS BIIF-10  (PRN 08)   
1 40730U 15033A   18236.35474762 -.00000079  00000-0  00000+0 0  9990
2 40730  55.5596  22.4860 0035749 333.5992  26.2252  2.00570936 22774
GPS BIIF-11  (PRN 10)   
1 41019U 15062A   18235.90796100 -.00000039  00000-0  00000+0 0  9992
2 41019  55.0901 143.0896 0038036 203.7186 156.1344  2.00564546 20586
GPS BIIF-12  (PRN 32)   
1 41328U 16007A   18235.99610337  .00000005  00000-0  00000+0 0  9993
2 41328  54.8357 202.7942 0024428 219.4340 140.3581  2.00560623 18646
